     2              NAVIGATION DATA                         RINEX VERSION / TYPE
CCRINEXN V1.6.0 UX  CDDIS               23-SEP-18 10:26     PGM / RUN BY / DATE 
IGS BROADCAST EPHEMERIS FILE                                COMMENT             
    0.8382D-08  0.1490D-07 -0.5960D-07 -0.5960D-07          ION ALPHA           
    0.8397D+05  0.1638D+05 -0.1311D+06 -0.6554D+05          ION BETA            
   -0.186264514923D-08-0.444089209850D-14   233472     2020 DELTA-UTC: A0,A1,T,W
    18                                                      LEAP SECONDS        
                                                            END OF HEADER       
30 18  9 23  2  0  0.0 0.202930532396D-04-0.522959453519D-11 0.000000000000D+00
    0.810000000000D+02-0.132812500000D+02 0.551272962732D-08 0.111662001753D+01
   -0.568106770515D-06 0.361718900967D-02 0.374019145966D-05 0.515368035889D+04
    0.720000000000D+04 0.707805156708D-07-0.169108309521D+01-0.409781932831D-07
    0.942679638688D+00 0.295468750000D+03-0.297409967217D+01-0.870786271744D-08
   -0.223580741607D-09 0.100000000000D+01 0.202000000000D+04 0.000000000000D+00
    0.200000000000D+01 0.000000000000D+00 0.372529029846D-08 0.810000000000D+02
    0.180000000000D+02 0.400000000000D+01 0.000000000000D+00 0.000000000000D+00
31 18  9 23  2  0  0.0 0.917022116482D-04-0.261479726760D-11 0.000000000000D+00
    0.960000000000D+02-0.940625000000D+01 0.508199748950D-08 0.924124579715D+00
   -0.409781932831D-06 0.889940757770D-02 0.367499887943D-05 0.515373627281D+04
    0.720000000000D+04 0.111758708954D-06-0.170992163406D+01 0.894069671631D-07
    0.961743216762D+00 0.304656250000D+03-0.108815474773D+00-0.843535108430D-08
   -0.258939369946D-09 0.100000000000D+01 0.202000000000D+04 0.000000000000D+00
    0.200000000000D+01 0.000000000000D+00-0.135041773319D-07 0.960000000000D+02
    0.300000000000D+02 0.000000000000D+00 0.000000000000D+00 0.000000000000D+00
32 18  9 23  2  0  0.0-0.415567308664D-03 0.115960574476D-10 0.000000000000D+00
    0.620000000000D+02 0.467812500000D+02 0.464555061086D-08-0.156773396234D+01
    0.247731804848D-05 0.230969092809D-02 0.993348658085D-05 0.515371010780D+04
    0.720000000000D+04 0.428408384323D-07-0.279485733003D+01 0.260770320892D-07
    0.957341000752D+00 0.185437500000D+03-0.255324564363D+01-0.802533417499D-08
    0.612882689044D-09 0.100000000000D+01 0.202000000000D+04 0.000000000000D+00
    0.200000000000D+01 0.000000000000D+00 0.465661287308D-09 0.620000000000D+02
    0.300000000000D+02 0.000000000000D+00 0.000000000000D+00 0.000000000000D+00
 3 18  9 23  3 25  0.0 0.139883864904D-03 0.503774799654D-11 0.000000000000D+00
    0.410000000000D+02-0.980937500000D+02 0.422946188835D-08 0.146455431364D+01
   -0.510737299919D-05 0.174163986230D-02 0.963360071182D-05 0.515368224000D+04
    0.123000000000D+05-0.279396772385D-08 0.244999587214D+01-0.158324837685D-07
    0.961813373193D+00 0.194796875000D+03 0.644301693249D+00-0.794973892313D-08
   -0.219652006531D-09 0.100000000000D+01 0.202000000000D+04 0.000000000000D+00
    0.256000000000D+03 0.000000000000D+00 0.186264514923D-08 0.410000000000D+02
    0.721200000000D+04 0.400000000000D+01 0.000000000000D+00 0.000000000000D+00
 7 18  9 23  3 25  0.0 0.119348231237D-03-0.669686528454D-11 0.000000000000D+00
    0.410000000000D+02-0.491796875000D+01 0.523343227918D-08 0.188137350221D+01
   -0.267289578915D-06 0.120866356883D-01 0.389292836189D-05 0.515363356894D+04
    0.123000000000D+05-0.272877514362D-06-0.172298625981D+01 0.838190317154D-08
    0.957125504142D+00 0.305777343750D+03-0.248968765209D+01-0.848172536822D-08
   -0.783961226560D-10 0.100000000000D+01 0.202000000000D+04 0.000000000000D+00
    0.128000000000D+03 0.000000000000D+00-0.111758708954D-07 0.410000000000D+02
    0.135480000000D+05 0.400000000000D+01 0.000000000000D+00 0.000000000000D+00
17 18  9 23  3 25  0.0-0.525826471858D-04 0.443378667114D-11 0.000000000000D+00
    0.410000000000D+02 0.848203125000D+02 0.392409202561D-08-0.157016921770D+01
    0.438094139099D-05 0.125832064659D-01 0.816956162453D-05 0.515361843700D+04
    0.123000000000D+05 0.149011611938D-06 0.405465526707D+00 0.250525772572D-06
    0.983478792034D+00 0.237628906250D+03-0.177382636278D+01-0.779901835930D-08
    0.233045421563D-09 0.100000000000D+01 0.202000000000D+04 0.000000000000D+00
    0.640000000000D+02 0.000000000000D+00-0.111758708954D-07 0.410000000000D+02
    0.726000000000D+04 0.400000000000D+01 0.000000000000D+00 0.000000000000D+00
26 18  9 23  3 25  0.0-0.120384502225D-04 0.115107923193D-10 0.000000000000D+00
    0.410000000000D+02-0.281523437500D+02 0.459269130403D-08 0.354523983530D+00
   -0.141747295856D-05 0.294279732043D-02 0.111162662506D-04 0.515372635098D+04
    0.123000000000D+05 0.335276126862D-07-0.712906937950D+00-0.176951289177D-07
    0.954545999941D+00 0.161117187500D+03 0.546568686780D-01-0.806206503054D-08
   -0.602525097589D-09 0.100000000000D+01 0.202000000000D+04 0.000000000000D+00
    0.320000000000D+02 0.000000000000D+00 0.745058059692D-08 0.410000000000D+02
    0.127500000000D+05 0.400000000000D+01 0.000000000000D+00 0.000000000000D+00
 1 18  9 23  3 30  0.0-0.914519187063D-04-0.464694949187D-11 0.000000000000D+00
    0.420000000000D+02-0.123828125000D+02 0.448804408791D-08 0.256479523338D+01
   -0.728294253349D-06 0.810835609445D-02 0.215135514736D-05 0.515366177863D+04
    0.126000000000D+05-0.298023223877D-07 0.140686278672D+01-0.577419996262D-07
    0.972226149784D+00 0.345308593750D+03 0.697037567624D+00-0.828171703707D-08
   -0.442875590403D-10 0.100000000000D+01 0.202000000000D+04 0.000000000000D+00
    0.204800000000D+04 0.000000000000D+00 0.558793544769D-08 0.420000000000D+02
    0.721200000000D+04 0.400000000000D+01 0.000000000000D+00 0.000000000000D+00
 4 18  9 23  3 30  0.0 0.102236808743D-03 0.403588273912D-11 0.000000000000D+00
    0.420000000000D+02-0.163945312500D+02 0.535986611708D-08-0.293607928417D+00
   -0.811181962490D-06 0.978659972316D-02 0.113444402814D-04 0.515373785489D+04
    0.126000000000D+05-0.251457095146D-07-0.663361912463D+00 0.735744833946D-07
    0.977952059423D+00 0.170132812500D+03 0.924351936934D+00-0.793491687717D-08
   -0.557344644213D-09 0.100000000000D+01 0.202000000000D+04 0.000000000000D+00
   -0.100000000000D+01 0.000000000000D+00-0.195577740669D-07 0.420000000000D+02
    0.726000000000D+04 0.400000000000D+01 0.000000000000D+00 0.000000000000D+00
 5 18  9 23  3 30  0.0-0.168051337823D-05 0.401456645705D-12 0.000000000000D+00
    0.420000000000D+02-0.700664062500D+02 0.457983362560D-08-0.792679175435D+00
   -0.370200723410D-05 0.564120209310D-02 0.938307493925D-05 0.515379127610D+04
    0.126000000000D+05 0.707805156708D-07 0.242655680557D+01 0.661239027977D-07
    0.948677363626D+00 0.189816406250D+03 0.688994765135D+00-0.816064056518D-08
   -0.173578658819D-09 0.100000000000D+01 0.202000000000D+04 0.000000000000D+00
    0.102400000000D+04 0.000000000000D+00-0.111758708954D-07 0.420000000000D+02
    0.126840000000D+05 0.400000000000D+01 0.000000000000D+00 0.000000000000D+00
 6 18  9 23  3 30  0.0 0.359856436262D-03-0.523669996255D-11 0.000000000000D+00
    0.420000000000D+02-0.108203125000D+02 0.447786509248D-08 0.285298498575D+01
   -0.606290996075D-06 0.966235937085D-03 0.256579369307D-05 0.515370248451D+04
    0.126000000000D+05-0.745058059692D-08 0.139854342468D+01-0.307336449623D-07
    0.971922828350D+00 0.335933593750D+03-0.113768113344D+01-0.825903752095D-08
   -0.375015620906D-10 0.100000000000D+01 0.202000000000D+04 0.000000000000D+00
   -0.100000000000D+01 0.000000000000D+00 0.465661287308D-08 0.420000000000D+02
    0.721200000000D+04 0.400000000000D+01 0.000000000000D+00 0.000000000000D+00
 7 18  9 23  3 30  0.0 0.119345786516D-03-0.670041799822D-11 0.000000000000D+00
    0.420000000000D+02-0.491796875000D+01 0.523432517351D-08 0.192513241532D+01
   -0.267289578915D-06 0.120866376674D-01 0.389292836189D-05 0.515363360854D+04
    0.126000000000D+05-0.272877514362D-06-0.172298881845D+01 0.838190317154D-08
    0.957125482930D+00 0.305777343750D+03-0.248968773694D+01-0.848172536822D-08
   -0.785747015231D-10 0.100000000000D+01 0.202000000000D+04 0.000000000000D+00
   -0.100000000000D+01 0.000000000000D+00-0.111758708954D-07 0.420000000000D+02
    0.726000000000D+04 0.400000000000D+01 0.000000000000D+00 0.000000000000D+00
 8 18  9 23  3 30  0.0-0.116081238957D-03-0.131095134748D-11 0.000000000000D+00
    0.420000000000D+02 0.922656250000D+02 0.414785134609D-08-0.114653305544D+01
    0.482983887196D-05 0.355536292773D-02 0.922009348869D-05 0.515363166267D+04
    0.126000000000D+05-0.465661287308D-07 0.341355662491D+00-0.419095158577D-07
    0.969938294395D+00 0.208261718750D+03-0.407168361888D+00-0.795295334274D-08
    0.335728270144D-09 0.100000000000D+01 0.202000000000D+04 0.000000000000D+00
   -0.100000000000D+01 0.000000000000D+00 0.512227416039D-08 0.420000000000D+02
    0.101580000000D+05 0.400000000000D+01 0.000000000000D+00 0.000000000000D+00
 9 18  9 23  3 30  0.0 0.504944939166D-03-0.220978790821D-11 0.000000000000D+00
    0.420000000000D+02 0.420273437500D+02 0.474930497047D-08-0.110545819470D+01
    0.219605863094D-05 0.104527123040D-02 0.964477658272D-05 0.515354165652D+04
    0.126000000000D+05 0.000000000000D+00-0.280044072219D+01-0.372529029846D-08
    0.953007662583D+00 0.192093750000D+03 0.174395874556D+01-0.806510087128D-08
    0.554844540074D-09 0.100000000000D+01 0.202000000000D+04 0.000000000000D+00
   -0.100000000000D+01 0.000000000000D+00 0.931322574616D-09 0.420000000000D+02
    0.721200000000D+04 0.400000000000D+01 0.000000000000D+00 0.000000000000D+00
